STARLINK-1329
1 25531C 20025A   21325.10905449 -.00001172  00000-0 -78521-4 0  3255
2 25531  53.0537 312.7309 0001540  61.1210 231.9200 15.06389922    12
